
# Worst residual: 30.09 km
# MJD 59930.000000 (2022 Dec 17  0:00)
2018-103B = NORAD 43846 = Chang'e 4 booster
1 43846U 18103B   22351.49919926  .00000000  00000-0  00000-0 2 16899
2 43846 058.1656 283.5447 7204498 142.9506 121.6832 00.01757593    02

# Worst residual: 28.12 km
# MJD 59931.000000 (2022 Dec 18  0:00)
2018-103B = NORAD 43846 = Chang'e 4 booster
1 43846U 18103B   22352.49919926  .00000000  00000-0  00000-0 2 16890
2 43846 057.9979 283.7854 7139329 143.4307 126.6288 00.01737701    05

# Worst residual: 25.43 km
# MJD 59932.000000 (2022 Dec 19  0:00)
2018-103B = NORAD 43846 = Chang'e 4 booster
1 43846U 18103B   22353.49919926  .00000000  00000-0  00000-0 2 16891
2 43846 057.8102 284.0417 7075774 143.8400 131.6208 00.01720008    02

# Worst residual: 22.77 km
# MJD 59933.000000 (2022 Dec 20  0:00)
2018-103B = NORAD 43846 = Chang'e 4 booster
1 43846U 18103B   22354.49919926  .00000000  00000-0  00000-0 2 16892
2 43846 057.6361 284.2676 7015130 144.1983 136.6787 00.01704517    00

# Worst residual: 20.49 km
# MJD 59934.000000 (2022 Dec 21  0:00)
2018-103B = NORAD 43846 = Chang'e 4 booster
1 43846U 18103B   22355.49919926  .00000000  00000-0  00000-0 2 16893
2 43846 057.4893 284.4484 6958752 144.5162 141.7984 00.01691121    07

# Worst residual: 19.05 km
# MJD 59935.000000 (2022 Dec 22  0:00)
2018-103B = NORAD 43846 = Chang'e 4 booster
1 43846U 18103B   22356.49919926  .00000000  00000-0  00000-0 2 16894
2 43846 057.3824 284.5734 6907978 144.8109 146.9467 00.01679635    06

# Worst residual: 18.90 km
# MJD 59936.000000 (2022 Dec 23  0:00)
2018-103B = NORAD 43846 = Chang'e 4 booster
1 43846U 18103B   22357.49919926  .00000000  00000-0  00000-0 2 16895
2 43846 057.3262 284.6358 6864015 145.1070 152.0598 00.01669842    02

# Worst residual: 20.19 km
# MJD 59937.000000 (2022 Dec 24  0:00)
2018-103B = NORAD 43846 = Chang'e 4 booster
1 43846U 18103B   22358.49919926  .00000000  00000-0  00000-0 2 16896
2 43846 057.3283 284.6339 6827678 145.4317 157.0587 00.01661559    05

# Worst residual: 22.57 km
# MJD 59938.000000 (2022 Dec 25  0:00)
2018-103B = NORAD 43846 = Chang'e 4 booster
1 43846U 18103B   22359.49919926  .00000000  00000-0  00000-0 2 16897
2 43846 057.3899 284.5731 6799031 145.8081 161.8704 00.01654655    09

# Worst residual: 25.71 km
# MJD 59939.000000 (2022 Dec 26  0:00)
2018-103B = NORAD 43846 = Chang'e 4 booster
1 43846U 18103B   22360.49919926  .00000000  00000-0  00000-0 2 16899
2 43846 057.5026 284.4681 6777287 146.2491 166.4424 00.01649025    00

# Worst residual: 29.21 km
# MJD 59940.000000 (2022 Dec 27  0:00)
2018-103B = NORAD 43846 = Chang'e 4 booster
1 43846U 18103B   22361.49919926  .00000000  00000-0  00000-0 2 16890
2 43846 057.6489 284.3396 6761073 146.7576 170.7470 00.01644583    04

# Worst residual: 32.74 km
# MJD 59941.000000 (2022 Dec 28  0:00)
2018-103B = NORAD 43846 = Chang'e 4 booster
1 43846U 18103B   22362.49919926  .00000000  00000-0  00000-0 2 16891
2 43846 057.8061 284.2097 6748846 147.3280 174.7806 00.01641265    02

# Worst residual: 36.01 km
# MJD 59942.000000 (2022 Dec 29  0:00)
2018-103B = NORAD 43846 = Chang'e 4 booster
1 43846U 18103B   22363.49919926  .00000000  00000-0  00000-0 2 16892
2 43846 057.9501 284.0978 6739206 147.9500 178.5586 00.01639028    00

# Worst residual: 38.87 km
# MJD 59943.000000 (2022 Dec 30  0:00)
2018-103B = NORAD 43846 = Chang'e 4 booster
1 43846U 18103B   22364.49919926  .00000000  00000-0  00000-0 2 16893
2 43846 058.0588 284.0185 6731039 148.6113 182.1103 00.01637847    04

# Worst residual: 41.20 km
# MJD 59944.000000 (2022 Dec 31  0:00)
2018-103B = NORAD 43846 = Chang'e 4 booster
1 43846U 18103B   22365.49919926  .00000000  00000-0  00000-0 2 16894
2 43846 058.1133 283.9811 6723521 149.2996 185.4729 00.01637703    09
